{{Infobox Planet  
| name = 505 Cava
| image = 
| caption = 
| discovery=yes | physical_characteristics = yes | bgcolour=#FFFFC0
| discovery_ref = 
| discoverer = [[罗尔·哈伍德·弗罗斯特|罗尔·哈伍德·弗罗斯特]]
| discovery_site = [[阿雷基帕|阿雷基帕]]
| discovered =  1902年8月21日
| mp_name = 505
| alt_names = 1902 LL
| named_after = Cava
| mp_category=[[小行星带|主带小行星]]
| orbit_ref = <ref>[http://ssd.jpl.nasa.gov/sbdb.cgi?sstr=505 505 Cava (1902 LL)]</ref>
| epoch = 2011年8月27日
| semimajor= 2.684812039585257AU
| perihelion=2.026034844182194AU
| aphelion= 3.34358923498832[[天文单位|AU]]
| eccentricity =0.2453718121380406					
| period = 1606.827503835604[[日|地球日]]<br>4.40[[年|地球年]] 
| inclination=9.840989309923348[[角度|°]]
| asc_node=90.8932317752668°
| arg_peri=337.2674444427344°
| mean_anomaly=175.8721180536808°
| avg_speed=
 | dimensions=115千米
 | mass=
 | density=
 | surface_grav=
 | escape_velocity=
 | rotation=8.1789小时
 | spectral_type=[[F-型小行星|FC]]
 | magnitude=
 | abs_magnitude=8.61
 | albedo=0.040	
 | single_temperature=
}}
'''小行星505'''（'''505 Cava'''），是由[[美国|美国]][[天文学家|天文学家]][[罗尔·哈伍德·弗罗斯特|罗尔·哈伍德·弗罗斯特]]于1902年8月21日在[[秘鲁|秘鲁]][[阿雷基帕|阿雷基帕]]发现的[[小行星带|主带]][[小行星|小行星]]。

小行星505以[[印加神话|印加神话]]的人物Cava命名。

== 参考资料 ==
{{Reflist}}

{{Minor Planet Number|(504)[[小行星504|小行星504]]|(506)[[小行星506|小行星506]]}}

[[Category:小行星带天体|Category:小行星带天体]]
[[Category:1902年发现的小行星|Category:1902年发现的小行星]]